QIANFAN-81              
1 63167U 25046J   25343.15618131  .00000179  00000+0  25804-3 0  9991
2 63167  88.9759 320.2429 0016070 126.1438 234.1203 13.51001064 47009
QIANFAN-82              
1 63168U 25046K   25343.11609624  .00000171  00000+0  24528-3 0  9999
2 63168  88.9759 320.2909 0014033 132.6766 227.5570 13.50974578 46983
QIANFAN-83              
1 63169U 25046L   25343.09900904  .00000192  00000+0  23254-3 0  9990
2 63169  88.9760 320.0762 0015675 120.0325 240.2390 13.61972971 47100
QIANFAN-84              
1 63170U 25046M   25343.14392927  .00000110  00000+0  15165-3 0  9990
2 63170  88.9759 320.4208 0017063 130.4835 229.7806 13.50985803 46911
QIANFAN-85              
1 63171U 25046N   25343.14066088  .00000160  00000+0  22946-3 0  9997
2 63171  88.9759 320.2928 0014405 131.6799 228.5587 13.50975014 46981
QIANFAN-86              
1 63172U 25046P   25343.14898840  .00000172  00000+0  24796-3 0  9995
2 63172  88.9761 320.1539 0012192 134.4581 225.7569 13.50974895 47068
QIANFAN-87              
1 63173U 25046Q   25343.12031273  .00000142  00000+0  20186-3 0  9999
2 63173  88.9757 320.2688 0012959 130.6523 229.5757 13.50973005 46999
QIANFAN-88              
1 63174U 25046R   25343.13665830  .00000163  00000+0  23356-3 0  9998
2 63174  88.9760 320.2215 0013153 138.1124 222.1036 13.50979455 47026
